{
  "links" : {
    "next" : "https://api.nasa.gov/neo/rest/v1/feed?start_date=1995-10-23&end_date=1995-10-23&detailed=true&api_key=t0TVs3DtDT2H8Oy2Zy8m2eVrNsAVKAexjcZXUckd",
    "prev" : "https://api.nasa.gov/neo/rest/v1/feed?start_date=1995-10-21&end_date=1995-10-21&detailed=true&api_key=t0TVs3DtDT2H8Oy2Zy8m2eVrNsAVKAexjcZXUckd",
    "self" : "https://api.nasa.gov/neo/rest/v1/feed?start_date=1995-10-22&end_date=1995-10-22&detailed=true&api_key=t0TVs3DtDT2H8Oy2Zy8m2eVrNsAVKAexjcZXUckd"
  },
  "element_count" : 5,
  "near_earth_objects" : {
    "1995-10-22" : [ {
      "links" : {
        "self" : "https://api.nasa.gov/neo/rest/v1/neo/2355046?api_key=t0TVs3DtDT2H8Oy2Zy8m2eVrNsAVKAexjcZXUckd"
      },
      "neo_reference_id" : "2355046",
      "name" : "355046 (2006 SO19)",
      "nasa_jpl_url" : "http://ssd.jpl.nasa.gov/sbdb.cgi?sstr=2355046",
      "absolute_magnitude_h" : 19.5,
      "estimated_diameter" : {
        "kilometers" : {
          "estimated_diameter_min" : 0.3346223745,
          "estimated_diameter_max" : 0.7482383761
        },
        "meters" : {
          "estimated_diameter_min" : 334.6223744549,
          "estimated_diameter_max" : 748.2383760735
        },
        "miles" : {
          "estimated_diameter_min" : 0.2079246394,
          "estimated_diameter_max" : 0.464933628
        },
        "feet" : {
          "estimated_diameter_min" : 1097.8424710066,
          "estimated_diameter_max" : 2454.8503937571
        }
      },
      "is_potentially_hazardous_asteroid" : false,
      "close_approach_data" : [ {
        "close_approach_date" : "1995-10-22",
        "epoch_date_close_approach" : 814345200000,
        "relative_velocity" : {
          "kilometers_per_second" : "7.5419072602",
          "kilometers_per_hour" : "27150.8661367606",
          "miles_per_hour" : "16870.4923503666"
        },
        "miss_distance" : {
          "astronomical" : "0.4797389449",
          "lunar" : "186.6184539795",
          "kilometers" : "71767928",
          "miles" : "44594520"
        },
        "orbiting_body" : "Earth"
      } ],
      "orbital_data" : {
        "orbit_id" : "32",
        "orbit_determination_date" : "2017-04-06 09:22:59",
        "orbit_uncertainty" : "0",
        "minimum_orbit_intersection" : ".107051",
        "jupiter_tisserand_invariant" : "5.100",
        "epoch_osculation" : "2458000.5",
        "eccentricity" : ".2719420423503477",
        "semi_major_axis" : "1.242319677520225",
        "inclination" : "14.24516858773409",
        "ascending_node_longitude" : "98.32819872250843",
        "orbital_period" : "505.7646520643147",
        "perihelion_distance" : ".9044807271633497",
        "perihelion_argument" : "169.7281330021665",
        "aphelion_distance" : "1.580158627877101",
        "perihelion_time" : "2457965.665232043737",
        "mean_anomaly" : "24.79516196529261",
        "mean_motion" : ".7117935160763691",
        "equinox" : "J2000"
      }
    }, {
      "links" : {
        "self" : "https://api.nasa.gov/neo/rest/v1/neo/2444193?api_key=t0TVs3DtDT2H8Oy2Zy8m2eVrNsAVKAexjcZXUckd"
      },
      "neo_reference_id" : "2444193",
      "name" : "444193 (2005 SE71)",
      "nasa_jpl_url" : "http://ssd.jpl.nasa.gov/sbdb.cgi?sstr=2444193",
      "absolute_magnitude_h" : 18.2,
      "estimated_diameter" : {
        "kilometers" : {
          "estimated_diameter_min" : 0.6089126221,
          "estimated_diameter_max" : 1.3615700154
        },
        "meters" : {
          "estimated_diameter_min" : 608.9126221057,
          "estimated_diameter_max" : 1361.5700153859
        },
        "miles" : {
          "estimated_diameter_min" : 0.3783606449,
          "estimated_diameter_max" : 0.846040122
        },
        "feet" : {
          "estimated_diameter_min" : 1997.7448871092,
          "estimated_diameter_max" : 4467.0933692788
        }
      },
      "is_potentially_hazardous_asteroid" : true,
      "close_approach_data" : [ {
        "close_approach_date" : "1995-10-22",
        "epoch_date_close_approach" : 814345200000,
        "relative_velocity" : {
          "kilometers_per_second" : "18.153807376",
          "kilometers_per_hour" : "65353.7065536472",
          "miles_per_hour" : "40608.2517194037"
        },
        "miss_distance" : {
          "astronomical" : "0.2483933654",
          "lunar" : "96.6250228882",
          "kilometers" : "37159120",
          "miles" : "23089606"
        },
        "orbiting_body" : "Earth"
      } ],
      "orbital_data" : {
        "orbit_id" : "60",
        "orbit_determination_date" : "2017-09-21 06:22:01",
        "orbit_uncertainty" : "0",
        "minimum_orbit_intersection" : ".00221412",
        "jupiter_tisserand_invariant" : "5.673",
        "epoch_osculation" : "2458000.5",
        "eccentricity" : ".1945443757838803",
        "semi_major_axis" : "1.069295734937423",
        "inclination" : "24.8308415698602",
        "ascending_node_longitude" : "39.13339239024656",
        "orbital_period" : "403.8733332440123",
        "perihelion_distance" : ".8612702636556564",
        "perihelion_argument" : "78.20976413384204",
        "aphelion_distance" : "1.277321206219189",
        "perihelion_time" : "2458150.978908667185",
        "mean_anomaly" : "225.8678286950511",
        "mean_motion" : ".8913685811053415",
        "equinox" : "J2000"
      }
    }, {
      "links" : {
        "self" : "https://api.nasa.gov/neo/rest/v1/neo/3072196?api_key=t0TVs3DtDT2H8Oy2Zy8m2eVrNsAVKAexjcZXUckd"
      },
      "neo_reference_id" : "3072196",
      "name" : "(2001 ED18)",
      "nasa_jpl_url" : "http://ssd.jpl.nasa.gov/sbdb.cgi?sstr=3072196",
      "absolute_magnitude_h" : 24.5,
      "estimated_diameter" : {
        "kilometers" : {
          "estimated_diameter_min" : 0.0334622374,
          "estimated_diameter_max" : 0.0748238376
        },
        "meters" : {
          "estimated_diameter_min" : 33.4622374455,
          "estimated_diameter_max" : 74.8238376074
        },
        "miles" : {
          "estimated_diameter_min" : 0.0207924639,
          "estimated_diameter_max" : 0.0464933628
        },
        "feet" : {
          "estimated_diameter_min" : 109.7842471007,
          "estimated_diameter_max" : 245.4850393757
        }
      },
      "is_potentially_hazardous_asteroid" : false,
      "close_approach_data" : [ {
        "close_approach_date" : "1995-10-22",
        "epoch_date_close_approach" : 814345200000,
        "relative_velocity" : {
          "kilometers_per_second" : "11.2868147134",
          "kilometers_per_hour" : "40632.5329684142",
          "miles_per_hour" : "25247.4758325127"
        },
        "miss_distance" : {
          "astronomical" : "0.2623579908",
          "lunar" : "102.0572509766",
          "kilometers" : "39248196",
          "miles" : "24387698"
        },
        "orbiting_body" : "Earth"
      } ],
      "orbital_data" : {
        "orbit_id" : "16",
        "orbit_determination_date" : "2017-04-06 09:16:29",
        "orbit_uncertainty" : "6",
        "minimum_orbit_intersection" : ".025664",
        "jupiter_tisserand_invariant" : "6.113",
        "epoch_osculation" : "2458000.5",
        "eccentricity" : ".05733700568269794",
        "semi_major_axis" : ".989173520926894",
        "inclination" : "11.63229032649051",
        "ascending_node_longitude" : "357.789502255069",
        "orbital_period" : "359.3413129382192",
        "perihelion_distance" : ".9324572731363344",
        "perihelion_argument" : "306.666110975172",
        "aphelion_distance" : "1.045889768717454",
        "perihelion_time" : "2457858.759930849771",
        "mean_anomaly" : "141.9998843908474",
        "mean_motion" : "1.001833040171181",
        "equinox" : "J2000"
      }
    } ]
  }
}